[{"OBJECT_NAME":"STARLINK-1954","OBJECT_ID":"2021-009H","EPOCH":"2026-03-09T23:20:25.352160","MEAN_MOTION":15.30849174,"ECCENTRICITY":0.00046184,"INCLINATION":53.0574,"RA_OF_ASC_NODE":8.8654,"ARG_OF_PERICENTER":103.3293,"MEAN_ANOMALY":256.8222,"EPHEMERIS_TYPE":0,"CLASSIFICATION_TYPE":"U","NORAD_CAT_ID":47555,"ELEMENT_SET_NO":999,"REV_AT_EPOCH":28100,"BSTAR":0.0022371791,"MEAN_MOTION_DOT":0.00067883,"MEAN_MOTION_DDOT":0},{"OBJECT_NAME":"STARLINK-31646","OBJECT_ID":"2024-050M","EPOCH":"2026-03-09T14:37:38.052480","MEAN_MOTION":15.30188574,"ECCENTRICITY":9.05e-5,"INCLINATION":53.158,"RA_OF_ASC_NODE":181.5497,"ARG_OF_PERICENTER":76.7952,"MEAN_ANOMALY":283.3149,"EPHEMERIS_TYPE":0,"CLASSIFICATION_TYPE":"U","NORAD_CAT_ID":59265,"ELEMENT_SET_NO":999,"REV_AT_EPOCH":11053,"BSTAR":3.7624e-5,"MEAN_MOTION_DOT":7.55e-6,"MEAN_MOTION_DDOT":0}]
